NORAD_CAT_ID,OBJECT_NAME,OBJECT_TYPE,EPOCH,MEAN_MOTION,ECCENTRICITY,INCLINATION,RA_OF_ASC_NODE,ARG_OF_PERICENTER,MEAN_ANOMALY,BSTAR,MEAN_MOTION_DOT,MEAN_MOTION_DDOT,TLE_LINE0,TLE_LINE1,TLE_LINE2,SEMIMAJOR_AXIS,PERIOD,APOGEE,PERIGEE,DECAYED
53531.0,STARLINK-4487,PAYLOAD,2024-08-12 23:55:41,15.08808891,0.0001514,53.2155,129.5232,100.7176,259.3987,-0.00084658,-0.00013725,0.0,0 STARLINK-4487,1 53531U 22101E   24225.99700542 -.00013725  00000-0 -84658-3 0  9998,2 53531  53.2155 129.5232 0001514 100.7176 259.3987 15.08808891109558,6917.975,95.44,540.888,538.793,0.0
53531.0,STARLINK-4487,PAYLOAD,2024-08-13 11:03:25,15.08776876,0.0001802,53.217,127.4382,105.3886,254.7305,-0.0011347,-0.0001827,0.0,0 STARLINK-4487,1 53531U 22101E   24226.46070802 -.00018270  00000-0 -11347-2 0  9994,2 53531  53.2170 127.4382 0001802 105.3886 254.7305 15.08776876109625,6918.073,95.442,541.185,538.692,0.0
53531.0,STARLINK-4487,PAYLOAD,2024-08-13 17:24:58,15.08780688,0.0001629,53.2137,126.2583,64.5046,295.6115,-0.00077922,-0.00012648,0.0,0 STARLINK-4487,1 53531U 22101E   24226.72567766 -.00012648  00000-0 -77922-3 0  9998,2 53531  53.2137 126.2583 0001629  64.5046 295.6115 15.08780688109662,6918.062,95.441,541.054,538.8,0.0
53531.0,STARLINK-4487,PAYLOAD,2024-08-13 22:11:06,15.08826942,0.0002409,53.2153,125.3638,106.6341,253.4916,0.00033848,5.101e-05,0.0,0 STARLINK-4487,1 53531U 22101E   24226.92438552  .00005101  00000-0  33848-3 0  9993,2 53531  53.2153 125.3638 0002409 106.6341 253.4916 15.08826942109692,6917.92,95.438,541.452,538.119,0.0
53531.0,STARLINK-4487,PAYLOAD,2024-08-14 02:57:16,15.08835266,0.0001576,53.2153,124.4701,94.6423,265.4749,0.00061625,9.532e-05,0.0,0 STARLINK-4487,1 53531U 22101E   24227.12310579  .00009532  00000-0  61625-3 0  9990,2 53531  53.2153 124.4701 0001576  94.6423 265.4749 15.08835266109724,6917.895,95.438,540.85,538.67,0.0
53531.0,STARLINK-4487,PAYLOAD,2024-08-14 10:54:12,15.08839124,0.0001588,53.215,122.9837,94.8454,265.2719,0.00078769,0.0001227,0.0,0 STARLINK-4487,1 53531U 22101E   24227.45430823  .00012270  00000-0  78769-3 0  9991,2 53531  53.2150 122.9837 0001588  94.8454 265.2719 15.08839124109770,6917.883,95.438,540.847,538.65,0.0
53531.0,STARLINK-4487,PAYLOAD,2024-08-14 22:01:53,15.08854704,0.0001441,53.2146,120.9019,91.2342,268.8815,0.00093745,0.00014669,0.0,0 STARLINK-4487,1 53531U 22101E   24227.91798389  .00014669  00000-0  93745-3 0  9991,2 53531  53.2146 120.9019 0001441  91.2342 268.8815 15.08854704109845,6917.835,95.437,540.697,538.704,0.0
53531.0,STARLINK-4487,PAYLOAD,2024-08-15 23:28:03,15.08855884,0.0001435,53.2157,116.1454,91.9822,268.1334,8.5614e-05,1.075e-05,0.0,0 STARLINK-4487,1 53531U 22101E   24228.97781471  .00001075  00000-0  85614-4 0  9996,2 53531  53.2157 116.1454 0001435  91.9822 268.1334 15.08855884110009,6917.832,95.437,540.69,538.704,0.0
53531.0,STARLINK-4487,PAYLOAD,2024-08-16 21:43:27,15.08844176,0.0001436,53.216,111.983,95.1173,264.9983,-2.8852e-05,-7.47e-06,0.0,0 STARLINK-4487,1 53531U 22101E   24229.90517390 -.00000747  00000-0 -28852-4 0  9995,2 53531  53.2160 111.9830 0001436  95.1173 264.9983 15.08844176110141,6917.868,95.437,540.726,538.739,0.0
53531.0,STARLINK-4487,PAYLOAD,2024-08-17 02:29:36,15.08848612,0.0001245,53.2152,111.088,85.8093,274.3041,-3.6893e-06,-3.47e-06,0.0,0 STARLINK-4487,1 53531U 22101E   24230.10389130 -.00000347  00000-0 -36893-5 0  9999,2 53531  53.2152 111.0880 0001245  85.8093 274.3041 15.08848612110175,6917.854,95.437,540.58,538.858,0.0
53531.0,STARLINK-4487,PAYLOAD,2024-08-18 19:49:37,15.08845821,0.0001322,53.2155,103.3585,93.7005,266.4138,8.91e-05,1.131e-05,0.0,0 STARLINK-4487,1 53531U 22101E   24231.82613054  .00001131  00000-0  89100-4 0  9992,2 53531  53.2155 103.3585 0001322  93.7005 266.4138 15.08845821110438,6917.863,95.437,540.642,538.813,0.0
53531.0,STARLINK-4487,PAYLOAD,2024-08-18 21:25:00,15.08861197,0.0001314,53.2155,103.0609,97.6757,262.4385,0.0003585,5.425e-05,0.0,0 STARLINK-4487,1 53531U 22101E   24231.89236857  .00005425  00000-0  35850-3 0  9993,2 53531  53.2155 103.0609 0001314  97.6757 262.4385 15.08861197110445,6917.816,95.436,540.59,538.772,0.0
53531.0,STARLINK-4487,PAYLOAD,2024-08-19 00:35:46,15.08861125,0.0001416,53.2159,102.4667,77.4677,282.6474,0.00031034,4.657e-05,0.0,0 STARLINK-4487,1 53531U 22101E   24232.02484607  .00004657  00000-0  31034-3 0  9993,2 53531  53.2159 102.4667 0001416  77.4677 282.6474 15.08861125110462,6917.816,95.436,540.66,538.701,0.0
53531.0,STARLINK-4487,PAYLOAD,2024-08-19 08:32:42,15.08843453,0.0001414,53.2158,100.9757,98.7232,261.3921,8.1962e-05,1.017e-05,0.0,0 STARLINK-4487,1 53531U 22101E   24232.35604945  .00001017  00000-0  81962-4 0  9991,2 53531  53.2158 100.9757 0001414  98.7232 261.3921 15.08843453110516,6917.87,95.437,540.713,538.757,0.0
53531.0,STARLINK-4487,PAYLOAD,2024-08-19 21:15:48,15.08841502,0.0002025,53.2145,98.6017,80.3752,279.7469,-0.00022271,-3.831e-05,0.0,0 STARLINK-4487,1 53531U 22101E   24232.88597658 -.00003831  00000-0 -22271-3 0  9996,2 53531  53.2145  98.6017 0002025  80.3752 279.7469 15.08841502110598,6917.876,95.437,541.142,538.34,0.0
53531.0,STARLINK-4487,PAYLOAD,2024-08-20 08:23:30,15.08844611,0.0001513,53.2154,96.5208,81.0166,279.0997,3.2968e-06,-2.36e-06,0.0,0 STARLINK-4487,1 53531U 22101E   24233.34965575 -.00000236  00000-0  32968-5 0  9996,2 53531  53.2154  96.5208 0001513  81.0166 279.0997 15.08844611110666,6917.866,95.437,540.778,538.685,0.0
53531.0,STARLINK-4487,PAYLOAD,2024-08-20 21:06:35,15.08854479,0.0001543,53.2146,94.1413,81.2101,278.9065,0.00052006,8.002e-05,0.0,0 STARLINK-4487,1 53531U 22101E   24233.87957342  .00008002  00000-0  52006-3 0  9998,2 53531  53.2146  94.1413 0001543  81.2101 278.9065 15.08854479110749,6917.836,95.437,540.769,538.634,0.0
53531.0,STARLINK-4487,PAYLOAD,2024-08-21 00:17:21,15.08860154,0.0001582,53.2145,93.5463,82.7234,277.3938,0.00094454,0.00014785,0.0,0 STARLINK-4487,1 53531U 22101E   24234.01205353  .00014785  00000-0  94454-3 0  9991,2 53531  53.2145  93.5463 0001582  82.7234 277.3938 15.08860154110763,6917.819,95.436,540.778,538.589,0.0
53531.0,STARLINK-4487,PAYLOAD,2024-08-21 17:46:35,15.08845768,0.0003125,53.2149,90.2677,137.3443,222.7792,0.0001381,1.91e-05,0.0,0 STARLINK-4487,1 53531U 22101E   24234.74069174  .00001910  00000-0  13810-3 0  9993,2 53531  53.2149  90.2677 0003125 137.3443 222.7792 15.08845768110870,6917.863,95.437,541.89,537.566,0.0
53531.0,STARLINK-4487,PAYLOAD,2024-08-21 20:57:22,15.08845947,0.0001344,53.2149,89.6806,85.0537,275.0609,0.00030128,4.511e-05,0.0,0 STARLINK-4487,1 53531U 22101E   24234.87317705  .00004511  00000-0  30128-3 0  9994,2 53531  53.2149  89.6806 0001344  85.0537 275.0609 15.08845947110899,6917.862,95.437,540.657,538.797,0.0
